[{"OBJECT_NAME":"STARLINK-32354","OBJECT_ID":"2024-207W","EPOCH":"2026-03-09T00:06:57.098592","MEAN_MOTION":15.27599767,"ECCENTRICITY":0.00019829,"INCLINATION":43.0041,"RA_OF_ASC_NODE":289.3865,"ARG_OF_PERICENTER":289.2672,"MEAN_ANOMALY":70.7966,"EPHEMERIS_TYPE":0,"CLASSIFICATION_TYPE":"U","NORAD_CAT_ID":61932,"ELEMENT_SET_NO":999,"REV_AT_EPOCH":7506,"BSTAR":0.001195832,"MEAN_MOTION_DOT":0.00032811,"MEAN_MOTION_DDOT":0},{"OBJECT_NAME":"TOMORROW-S3","OBJECT_ID":"2024-247R","EPOCH":"2026-03-09T11:56:51.820800","MEAN_MOTION":15.27672122,"ECCENTRICITY":3.967e-5,"INCLINATION":44.9999,"RA_OF_ASC_NODE":117.9871,"ARG_OF_PERICENTER":320.9462,"MEAN_ANOMALY":39.1392,"EPHEMERIS_TYPE":0,"CLASSIFICATION_TYPE":"U","NORAD_CAT_ID":62392,"ELEMENT_SET_NO":999,"REV_AT_EPOCH":6770,"BSTAR":0.00028857954,"MEAN_MOTION_DOT":7.664e-5,"MEAN_MOTION_DDOT":0}]
